STARLINK-36515          
1 67430U 26005AC  26026.58334491 -.00269898  00000+0 -18010-2 0  9991
2 67430  42.9999 121.1258 0001131 301.6184 120.5262 15.75162303  3333
STARLINK-36443          
1 67431U 26005AD  26026.58334491 -.00225589  00000+0 -14984-2 0  9997
2 67431  43.0000 121.1109 0001601 286.3344 141.5668 15.75139032  3362
STARLINK-36460          
1 67432U 26005AE  26026.58334491 -.00253468  00000+0 -16873-2 0  9994
2 67432  43.0000 121.1062 0001168 273.3471 156.4384 15.75169390  3412
YAOGAN-50 01            
1 67433U 26006A   26026.60587134  .00000393  00000+0  18477-3 0  9991
2 67433 142.0306 251.5808 0000684 271.9988  88.0652 13.83250909  1822
CZ-6A R/B               
1 67434U 26006B   26026.55580926  .00001723  00000+0  20271-3 0  9991
2 67434 142.0433 258.8408 0202541 176.8483 183.3554 14.62274660  1906
HULIANWANG DIGUI-137    
1 67435U 26007A   26026.25866993  .00000088  00000+0  19470-3 0  9993
2 67435  50.0067 244.1689 0000506 219.6318 140.4543 13.88154181  1765
HULIANWANG DIGUI-138    
1 67436U 26007B   26026.47709739  .00000082  00000+0  19106-3 0  9992
2 67436  50.0048 243.3223 0000258 288.4175  71.6695 13.87706745  1793
HULIANWANG DIGUI-139    
1 67437U 26007C   26026.47571177  .00000128  00000+0  22792-3 0  9992
2 67437  50.0024 243.3045 0001134 206.5057 153.5783 13.88032308  1790
HULIANWANG DIGUI-140    
1 67438U 26007D   26025.11056126  .00000134  00000+0  23233-3 0  9993
2 67438  50.0038 248.7599 0003277 277.0443  83.0082 13.88269827  1608
HULIANWANG DIGUI-141    
1 67439U 26007E   26025.10581003  .00000121  00000+0  21650-3 0  9997
2 67439  50.0075 248.7193 0001536 269.3855  90.6868 13.89617410  1609
HULIANWANG DIGUI-142    
1 67440U 26007F   26026.39923638 -.00000114  00000+0  25804-4 0  9994
2 67440  50.0110 243.5897 0000108 248.3800 111.7086 13.88800543  1782
HULIANWANG DIGUI-143    
1 67441U 26007G   26026.46986628  .00000094  00000+0  19628-3 0  9993
2 67441  50.0093 243.2925 0000273 292.1403  67.9466 13.89117457  1792
