CCSDS_OMM_VERS = 2.0
CREATION_DATE  = 
ORIGINATOR     = 

OBJECT_NAME    = STARLINK-36515
OBJECT_ID      = 2026-005AC
CENTER_NAME    = EARTH
REF_FRAME      = TEME
TIME_SYSTEM    = UTC
MEAN_ELEMENT_THEORY = SGP/SGP4

EPOCH          = 2026-01-26T14:00:01.000224
MEAN_MOTION    = 15.75162303
ECCENTRICITY   = .00011315
INCLINATION    = 42.9999
RA_OF_ASC_NODE = 121.1258
ARG_OF_PERICENTER = 301.6184
MEAN_ANOMALY   = 120.5262

EPHEMERIS_TYPE = 0
CLASSIFICATION_TYPE = U
NORAD_CAT_ID   = 67430
ELEMENT_SET_NO = 999
REV_AT_EPOCH   = 333
BSTAR          = -.18009644E-2
MEAN_MOTION_DOT = -.269898E-2
MEAN_MOTION_DDOT = 0

CCSDS_OMM_VERS = 2.0
CREATION_DATE  = 
ORIGINATOR     = 

OBJECT_NAME    = STARLINK-36443
OBJECT_ID      = 2026-005AD
CENTER_NAME    = EARTH
REF_FRAME      = TEME
TIME_SYSTEM    = UTC
MEAN_ELEMENT_THEORY = SGP/SGP4

EPOCH          = 2026-01-26T14:00:01.000224
MEAN_MOTION    = 15.75139032
ECCENTRICITY   = .00016019
INCLINATION    = 43.0000
RA_OF_ASC_NODE = 121.1109
ARG_OF_PERICENTER = 286.3344
MEAN_ANOMALY   = 141.5668

EPHEMERIS_TYPE = 0
CLASSIFICATION_TYPE = U
NORAD_CAT_ID   = 67431
ELEMENT_SET_NO = 999
REV_AT_EPOCH   = 336
BSTAR          = -.14983819E-2
MEAN_MOTION_DOT = -.225589E-2
MEAN_MOTION_DDOT = 0

CCSDS_OMM_VERS = 2.0
CREATION_DATE  = 
ORIGINATOR     = 

OBJECT_NAME    = STARLINK-36460
OBJECT_ID      = 2026-005AE
CENTER_NAME    = EARTH
REF_FRAME      = TEME
TIME_SYSTEM    = UTC
MEAN_ELEMENT_THEORY = SGP/SGP4

EPOCH          = 2026-01-26T14:00:01.000224
MEAN_MOTION    = 15.75169390
ECCENTRICITY   = .00011684
INCLINATION    = 43.0000
RA_OF_ASC_NODE = 121.1062
ARG_OF_PERICENTER = 273.3471
MEAN_ANOMALY   = 156.4384

EPHEMERIS_TYPE = 0
CLASSIFICATION_TYPE = U
NORAD_CAT_ID   = 67432
ELEMENT_SET_NO = 999
REV_AT_EPOCH   = 341
BSTAR          = -.16873419E-2
MEAN_MOTION_DOT = -.253468E-2
MEAN_MOTION_DDOT = 0

CCSDS_OMM_VERS = 2.0
CREATION_DATE  = 
ORIGINATOR     = 

OBJECT_NAME    = YAOGAN-50 01
OBJECT_ID      = 2026-006A
CENTER_NAME    = EARTH
REF_FRAME      = TEME
TIME_SYSTEM    = UTC
MEAN_ELEMENT_THEORY = SGP/SGP4

EPOCH          = 2026-01-26T14:32:27.283776
MEAN_MOTION    = 13.83250909
ECCENTRICITY   = .0000684
INCLINATION    = 142.0306
RA_OF_ASC_NODE = 251.5808
ARG_OF_PERICENTER = 271.9988
MEAN_ANOMALY   = 88.0652

EPHEMERIS_TYPE = 0
CLASSIFICATION_TYPE = U
NORAD_CAT_ID   = 67433
ELEMENT_SET_NO = 999
REV_AT_EPOCH   = 182
BSTAR          = .18476967E-3
MEAN_MOTION_DOT = .393E-5
MEAN_MOTION_DDOT = 0

CCSDS_OMM_VERS = 2.0
CREATION_DATE  = 
ORIGINATOR     = 

OBJECT_NAME    = CZ-6A R/B
OBJECT_ID      = 2026-006B
CENTER_NAME    = EARTH
REF_FRAME      = TEME
TIME_SYSTEM    = UTC
MEAN_ELEMENT_THEORY = SGP/SGP4

EPOCH          = 2026-01-26T13:20:21.920064
MEAN_MOTION    = 14.62274660
ECCENTRICITY   = .02025416
INCLINATION    = 142.0433
RA_OF_ASC_NODE = 258.8408
ARG_OF_PERICENTER = 176.8483
MEAN_ANOMALY   = 183.3554

EPHEMERIS_TYPE = 0
CLASSIFICATION_TYPE = U
NORAD_CAT_ID   = 67434
ELEMENT_SET_NO = 999
REV_AT_EPOCH   = 190
BSTAR          = .20270688E-3
MEAN_MOTION_DOT = .1723E-4
MEAN_MOTION_DDOT = 0

CCSDS_OMM_VERS = 2.0
CREATION_DATE  = 
ORIGINATOR     = 

OBJECT_NAME    = HULIANWANG DIGUI-137
OBJECT_ID      = 2026-007A
CENTER_NAME    = EARTH
REF_FRAME      = TEME
TIME_SYSTEM    = UTC
MEAN_ELEMENT_THEORY = SGP/SGP4

EPOCH          = 2026-01-26T06:12:29.081952
MEAN_MOTION    = 13.88154181
ECCENTRICITY   = .0000506
INCLINATION    = 50.0067
RA_OF_ASC_NODE = 244.1689
ARG_OF_PERICENTER = 219.6318
MEAN_ANOMALY   = 140.4543

EPHEMERIS_TYPE = 0
CLASSIFICATION_TYPE = U
NORAD_CAT_ID   = 67435
ELEMENT_SET_NO = 999
REV_AT_EPOCH   = 176
BSTAR          = .1947E-3
MEAN_MOTION_DOT = .88E-6
MEAN_MOTION_DDOT = 0

CCSDS_OMM_VERS = 2.0
CREATION_DATE  = 
ORIGINATOR     = 

OBJECT_NAME    = HULIANWANG DIGUI-138
OBJECT_ID      = 2026-007B
CENTER_NAME    = EARTH
REF_FRAME      = TEME
TIME_SYSTEM    = UTC
MEAN_ELEMENT_THEORY = SGP/SGP4

EPOCH          = 2026-01-26T11:27:01.214496
MEAN_MOTION    = 13.87706745
ECCENTRICITY   = .00002583
INCLINATION    = 50.0048
RA_OF_ASC_NODE = 243.3223
ARG_OF_PERICENTER = 288.4175
MEAN_ANOMALY   = 71.6695

EPHEMERIS_TYPE = 0
CLASSIFICATION_TYPE = U
NORAD_CAT_ID   = 67436
ELEMENT_SET_NO = 999
REV_AT_EPOCH   = 179
BSTAR          = .19105821E-3
MEAN_MOTION_DOT = .82E-6
MEAN_MOTION_DDOT = 0

CCSDS_OMM_VERS = 2.0
CREATION_DATE  = 
ORIGINATOR     = 

OBJECT_NAME    = HULIANWANG DIGUI-139
OBJECT_ID      = 2026-007C
CENTER_NAME    = EARTH
REF_FRAME      = TEME
TIME_SYSTEM    = UTC
MEAN_ELEMENT_THEORY = SGP/SGP4

EPOCH          = 2026-01-26T11:25:01.496928
MEAN_MOTION    = 13.88032308
ECCENTRICITY   = .00011348
INCLINATION    = 50.0024
RA_OF_ASC_NODE = 243.3045
ARG_OF_PERICENTER = 206.5057
MEAN_ANOMALY   = 153.5783

EPHEMERIS_TYPE = 0
CLASSIFICATION_TYPE = U
NORAD_CAT_ID   = 67437
ELEMENT_SET_NO = 999
REV_AT_EPOCH   = 179
BSTAR          = .22792306E-3
MEAN_MOTION_DOT = .128E-5
MEAN_MOTION_DDOT = 0

CCSDS_OMM_VERS = 2.0
CREATION_DATE  = 
ORIGINATOR     = 

OBJECT_NAME    = HULIANWANG DIGUI-140
OBJECT_ID      = 2026-007D
CENTER_NAME    = EARTH
REF_FRAME      = TEME
TIME_SYSTEM    = UTC
MEAN_ELEMENT_THEORY = SGP/SGP4

EPOCH          = 2026-01-25T02:39:12.492864
MEAN_MOTION    = 13.88269827
ECCENTRICITY   = .0003277
INCLINATION    = 50.0038
RA_OF_ASC_NODE = 248.7599
ARG_OF_PERICENTER = 277.0443
MEAN_ANOMALY   = 83.0082

EPHEMERIS_TYPE = 0
CLASSIFICATION_TYPE = U
NORAD_CAT_ID   = 67438
ELEMENT_SET_NO = 999
REV_AT_EPOCH   = 160
BSTAR          = .23232943E-3
MEAN_MOTION_DOT = .134E-5
MEAN_MOTION_DDOT = 0

CCSDS_OMM_VERS = 2.0
CREATION_DATE  = 
ORIGINATOR     = 

OBJECT_NAME    = HULIANWANG DIGUI-141
OBJECT_ID      = 2026-007E
CENTER_NAME    = EARTH
REF_FRAME      = TEME
TIME_SYSTEM    = UTC
MEAN_ELEMENT_THEORY = SGP/SGP4

EPOCH          = 2026-01-25T02:32:21.986592
MEAN_MOTION    = 13.89617410
ECCENTRICITY   = .00015362
INCLINATION    = 50.0075
RA_OF_ASC_NODE = 248.7193
ARG_OF_PERICENTER = 269.3855
MEAN_ANOMALY   = 90.6868

EPHEMERIS_TYPE = 0
CLASSIFICATION_TYPE = U
NORAD_CAT_ID   = 67439
ELEMENT_SET_NO = 999
REV_AT_EPOCH   = 160
BSTAR          = .21650445E-3
MEAN_MOTION_DOT = .121E-5
MEAN_MOTION_DDOT = 0

CCSDS_OMM_VERS = 2.0
CREATION_DATE  = 
ORIGINATOR     = 

OBJECT_NAME    = HULIANWANG DIGUI-142
OBJECT_ID      = 2026-007F
CENTER_NAME    = EARTH
REF_FRAME      = TEME
TIME_SYSTEM    = UTC
MEAN_ELEMENT_THEORY = SGP/SGP4

EPOCH          = 2026-01-26T09:34:54.023232
MEAN_MOTION    = 13.88800543
ECCENTRICITY   = .00001089
INCLINATION    = 50.0110
RA_OF_ASC_NODE = 243.5897
ARG_OF_PERICENTER = 248.3800
MEAN_ANOMALY   = 111.7086

EPHEMERIS_TYPE = 0
CLASSIFICATION_TYPE = U
NORAD_CAT_ID   = 67440
ELEMENT_SET_NO = 999
REV_AT_EPOCH   = 178
BSTAR          = .25803705E-4
MEAN_MOTION_DOT = -.114E-5
MEAN_MOTION_DDOT = 0

CCSDS_OMM_VERS = 2.0
CREATION_DATE  = 
ORIGINATOR     = 

OBJECT_NAME    = HULIANWANG DIGUI-143
OBJECT_ID      = 2026-007G
CENTER_NAME    = EARTH
REF_FRAME      = TEME
TIME_SYSTEM    = UTC
MEAN_ELEMENT_THEORY = SGP/SGP4

EPOCH          = 2026-01-26T11:16:36.446592
MEAN_MOTION    = 13.89117457
ECCENTRICITY   = .00002738
INCLINATION    = 50.0093
RA_OF_ASC_NODE = 243.2925
ARG_OF_PERICENTER = 292.1403
MEAN_ANOMALY   = 67.9466

EPHEMERIS_TYPE = 0
CLASSIFICATION_TYPE = U
NORAD_CAT_ID   = 67441
ELEMENT_SET_NO = 999
REV_AT_EPOCH   = 179
BSTAR          = .19628491E-3
MEAN_MOTION_DOT = .94E-6
MEAN_MOTION_DDOT = 0

